FLORIPASAT-1            
1 44885U 19093G   26199.95989699  .00001987  00000+0  14766-3 0  9993
2 44885  97.7912 294.4303 0010687 326.8112  33.2442 15.04156009357426
SHUNTIAN                
1 44886U 19093H   26199.92846609  .00001475  00000+0  13915-3 0  9991
2 44886  97.8008 287.9292 0010523 325.8513  34.2030 14.95288566356922
ELEKTRO-L 3             
1 44903U 19095A   26200.16483560 -.00000102  00000+0  00000+0 0  9999
2 44903   0.3374  82.3609 0001481  18.7927 331.1277  1.00271683 24025
GONETS-M 14             
1 44905U 19096A   26199.92548035 -.00000029  00000+0 -28339-3 0  9990
2 44905  82.5211  64.9611 0014436  83.0007 277.2714 12.42870863297623
GONETS-M 15             
1 44906U 19096B   26199.95477141  .00000016  00000+0  39590-4 0  9999
2 44906  82.5230  65.4095 0016174 104.5752 255.7123 12.42883307297592
GONETS-M 16             
1 44907U 19096C   26199.98055223  .00000021  00000+0  79503-4 0  9990
2 44907  82.5176  64.3307 0011161 143.3595 216.8250 12.42892727297587
RS-44 & BREEZE-KM R/B   
1 44909U 19096E   26199.82464754  .00000016  00000+0  14406-4 0  9993
2 44909  82.5244 318.6831 0218471  70.5556 291.9010 12.79748895306397
JILIN-1 KUANFU 01       
1 45016U 20003A   26199.94426836  .00001586  00000+0  99022-4 0  9995
2 45016  97.5017 273.2807 0009634 183.7829 176.3330 15.10878955360120
XINGYUN-2 01            
1 45602U 20028A   26199.91091631  .00001554  00000+0  94359-4 0  9994
2 45602  97.4884 191.6867 0010882  93.3446 266.9030 15.11926413339638
XINGYUN-2 02            
1 45603U 20028B   26199.89526259  .00001405  00000+0  86342-4 0  9999
2 45603  97.5073 205.3320 0011473 154.2069 205.9736 15.11646450339627
HAIYANG-1D              
1 45721U 20036A   26199.99591015  .00000106  00000+0  53122-4 0  9999
2 45721  98.4563 140.9857 0003955  63.3591 296.7999 14.34182661319537
M2 PATHFINDER           
1 45727U 20037E   26199.50045655  .00000761  00000+0  58406-4 0  9994
2 45727  97.8140  31.0865 0012602  52.1110 308.1253 15.04796790330208
GAOFEN DUOMO (GFDM)     
1 45856U 20042A   26199.98281428  .00000053  00000+0  14496-4 0  9990
2 45856  97.7724 258.7093 0010431 340.6547  19.4266 14.76803726325707
ZIYUAN 3-03 (ZY 3-03)   
1 45939U 20051A   26199.95341030  .00000542  00000+0  27475-4 0  9999
2 45939  97.5358 266.9745 0003015 225.7994 134.2994 15.21212898332172
NEMO-HD                 
1 46277U 20061F   26199.93244152  .00006344  00000+0  13557-3 0  9992
2 46277  97.1895 261.5750 0001023 107.9293 252.2068 15.45185967326883
NAPA-1                  
1 46320U 20061BA  26199.96281128  .00052325  00000+0  39412-3 0  9996
2 46320  97.2431 275.2866 0002692 172.3112 187.8194 15.72372208326720
JILIN-1 GAOFEN 3E       
1 46457U 20065D   26199.92289881  .00047298  00000+0  43336-3 0  9994
2 46457  97.2199 253.3529 0009607  59.9699 300.2514 15.67587096324720
JILIN-1 GAOFEN 3F       
1 46458U 20065E   26199.94538708  .00040690  00000+0  42621-3 0  9997
2 46458  97.2159 250.5458 0010873  45.0911 315.1229 15.64241572324661
JILIN-1 GAOFEN 3G       
1 46459U 20065F   26199.54667043  .00083486  00000+0  50139-3 0  9992
2 46459  97.2211 257.5312 0005849 257.9833 102.0778 15.77499339324876
JILIN-1 GAOFEN 3H       
1 46460U 20065G   26199.91835268  .00064798  00000+0  47887-3 0  9992
2 46460  97.2160 254.0238 0006971 190.4267 169.6854 15.72750298324861
HAIYANG-2C              
1 46469U 20066A   26199.90316624  .00000176  00000+0  23326-3 0  9993
2 46469  65.9974 136.3198 0007432 237.0142 123.0213 13.83373827293884
HJ-2A                   
1 46478U 20067A   26199.94805802 -.00000100  00000+0 -71661-5 0  9995
2 46478  97.8819 277.5683 0004433 145.0409 215.1093 14.76550148312949
HJ-2B                   
1 46479U 20067B   26199.91690910  .00000327  00000+0  54056-4 0  9992
2 46479  97.8883 278.5849 0002068 103.1908 256.9533 14.76512776312944
GONETS-M 17             
1 46486U 20068A   26199.92554403  .00000042  00000+0  23227-3 0  9997
2 46486  82.5020 327.7577 0021679 328.2351  31.7419 12.42874054263108
GONETS-M 18             
1 46487U 20068B   26199.96968576 -.00000025  00000+0 -25314-3 0  9994
2 46487  82.4974 326.8361 0018901 324.5775  35.4048 12.42874796263090
GONETS-M 19             
1 46488U 20068C   26199.94465909 -.00000036  00000+0 -33009-3 0  9997
2 46488  82.4999 327.3079 0012866 341.6442  18.4172 12.42892640263193
DEKART                  
1 46493U 20068H   26199.89786552  .00006809  00000+0  18439-3 0  9999
2 46493  97.8745 211.4553 0009668 160.5429 199.6185 15.37999669320643
