OBJECT_NAME,OBJECT_ID,EPOCH,MEAN_MOTION,ECCENTRICITY,INCLINATION,RA_OF_ASC_NODE,ARG_OF_PERICENTER,MEAN_ANOMALY,EPHEMERIS_TYPE,CLASSIFICATION_TYPE,NORAD_CAT_ID,ELEMENT_SET_NO,REV_AT_EPOCH,BSTAR,MEAN_MOTION_DOT,MEAN_MOTION_DDOT
FLORIPASAT-1,2019-093G,2026-07-18T23:02:15.099936,15.04156009,.00106876,97.7912,294.4303,326.8112,33.2442,0,U,44885,999,35742,.14765865E-3,.1987E-4,0
SHUNTIAN,2019-093H,2026-07-18T22:16:59.470176,14.95288566,.00105231,97.8008,287.9292,325.8513,34.2030,0,U,44886,999,35692,.13915474E-3,.1475E-4,0
ELEKTRO-L 3,2019-095A,2026-07-19T03:57:21.795840,1.00271683,.0001481,0.3374,82.3609,18.7927,331.1277,0,U,44903,999,2402,0,-.102E-5,0
GONETS-M 14,2019-096A,2026-07-18T22:12:41.502240,12.42870863,.00144363,82.5211,64.9611,83.0007,277.2714,0,U,44905,999,29762,-.28338532E-3,-.29E-6,0
GONETS-M 15,2019-096B,2026-07-18T22:54:52.249824,12.42883307,.0016174,82.5230,65.4095,104.5752,255.7123,0,U,44906,999,29759,.39590405E-4,.16E-6,0
GONETS-M 16,2019-096C,2026-07-18T23:31:59.712672,12.42892727,.0011161,82.5176,64.3307,143.3595,216.8250,0,U,44907,999,29758,.7950325E-4,.21E-6,0
RS-44 & BREEZE-KM R/B,2019-096E,2026-07-18T19:47:29.547456,12.79748895,.0218471,82.5244,318.6831,70.5556,291.9010,0,U,44909,999,30639,.14406434E-4,.16E-6,0
JILIN-1 KUANFU 01,2020-003A,2026-07-18T22:39:44.786304,15.10878955,.00096348,97.5017,273.2807,183.7829,176.3330,0,U,45016,999,36012,.99021537E-4,.1586E-4,0
XINGYUN-2 01,2020-028A,2026-07-18T21:51:43.169184,15.11926413,.00108824,97.4884,191.6867,93.3446,266.9030,0,U,45602,999,33963,.94359105E-4,.1554E-4,0
XINGYUN-2 02,2020-028B,2026-07-18T21:29:10.687776,15.11646450,.00114731,97.5073,205.3320,154.2069,205.9736,0,U,45603,999,33962,.86341904E-4,.1405E-4,0
HAIYANG-1D,2020-036A,2026-07-18T23:54:06.636960,14.34182661,.00039556,98.4563,140.9857,63.3591,296.7999,0,U,45721,999,31953,.53122487E-4,.106E-5,0
M2 PATHFINDER,2020-037E,2026-07-18T12:00:39.445920,15.04796790,.00126028,97.8140,31.0865,52.1110,308.1253,0,U,45727,999,33020,.58406323E-4,.761E-5,0
GAOFEN DUOMO (GFDM),2020-042A,2026-07-18T23:35:15.153792,14.76803726,.00104314,97.7724,258.7093,340.6547,19.4266,0,U,45856,999,32570,.14495942E-4,.53E-6,0
ZIYUAN 3-03 (ZY 3-03),2020-051A,2026-07-18T22:52:54.649920,15.21212898,.00030155,97.5358,266.9745,225.7994,134.2994,0,U,45939,999,33217,.27475229E-4,.542E-5,0
NEMO-HD,2020-061F,2026-07-18T22:22:42.947328,15.45185967,.00010233,97.1895,261.5750,107.9293,252.2068,0,U,46277,999,32688,.13557289E-3,.6344E-4,0
NAPA-1,2020-061BA,2026-07-18T23:06:26.894592,15.72372208,.00026921,97.2431,275.2866,172.3112,187.8194,0,U,46320,999,32672,.39412288E-3,.52325E-3,0
JILIN-1 GAOFEN 3E,2020-065D,2026-07-18T22:08:58.457184,15.67587096,.00096071,97.2199,253.3529,59.9699,300.2514,0,U,46457,999,32472,.43336301E-3,.47298E-3,0
JILIN-1 GAOFEN 3F,2020-065E,2026-07-18T22:41:21.443712,15.64241572,.00108734,97.2159,250.5458,45.0911,315.1229,0,U,46458,999,32466,.4262067E-3,.4069E-3,0
JILIN-1 GAOFEN 3G,2020-065F,2026-07-18T13:07:12.325152,15.77499339,.0005849,97.2211,257.5312,257.9833,102.0778,0,U,46459,999,32487,.50139E-3,.83486E-3,0
JILIN-1 GAOFEN 3H,2020-065G,2026-07-18T22:02:25.671552,15.72750298,.00069715,97.2160,254.0238,190.4267,169.6854,0,U,46460,999,32486,.47886985E-3,.64798E-3,0
HAIYANG-2C,2020-066A,2026-07-18T21:40:33.563136,13.83373827,.00074322,65.9974,136.3198,237.0142,123.0213,0,U,46469,999,29388,.23326457E-3,.176E-5,0
HJ-2A,2020-067A,2026-07-18T22:45:12.212928,14.76550148,.00044332,97.8819,277.5683,145.0409,215.1093,0,U,46478,999,31294,-.7166093E-5,-.1E-5,0
HJ-2B,2020-067B,2026-07-18T22:00:20.946240,14.76512776,.0002068,97.8883,278.5849,103.1908,256.9533,0,U,46479,999,31294,.54056277E-4,.327E-5,0
GONETS-M 17,2020-068A,2026-07-18T22:12:47.004192,12.42874054,.0021679,82.5020,327.7577,328.2351,31.7419,0,U,46486,999,26310,.2322723E-3,.42E-6,0
GONETS-M 18,2020-068B,2026-07-18T23:16:20.849664,12.42874796,.00189016,82.4974,326.8361,324.5775,35.4048,0,U,46487,999,26309,-.25313576E-3,-.25E-6,0
GONETS-M 19,2020-068C,2026-07-18T22:40:18.545376,12.42892640,.00128668,82.4999,327.3079,341.6442,18.4172,0,U,46488,999,26319,-.33008565E-3,-.36E-6,0
DEKART,2020-068H,2026-07-18T21:32:55.580928,15.37999669,.00096685,97.8745,211.4553,160.5429,199.6185,0,U,46493,999,32064,.18439091E-3,.6809E-4,0
